# From MPEC 2025-CE3
P/2003 QX29 (NEAT),e,11.3999,264.4847,37.7563,7.999731,0.0435603,0.47130170,352.2470,02/09.0/2025,2000,g  8.5,4.0
# From MPEC 2025-CE3
C/2014 UN271 (Bernardinelli-Bernstein),h,01/16.5207/2031,95.4426,189.9483,326.0815,1.004107,10.960000,2000,2.5,3.2
# From MPEC 2025-CE3
P/2015 CD60 (LINEAR),e,14.4826,279.2302,179.0860,4.594833,0.1000690,0.57248882,5.2106,02/09.0/2025,2000,g 14.7,4.0
# From MPEC 2025-CE3
C/2017 K2 (PANSTARRS),e,87.6403,88.2217,236.1917,3114,0.0000057,0.99942209,0.0000,12/18.9303/2022,2000,g  1.5,4.0
# From MPEC 2025-CE3
P/2019 A8 (PANSTARRS),e,2.2968,111.4262,46.8147,3.421400,0.1557394,0.37457462,351.4929,02/09.0/2025,2000,g 16.0,4.0
# From MPEC 2025-CE3
C/2019 E3 (ATLAS),e,84.3103,347.2030,280.7158,5102,0.0000027,0.99797867,0.0000,11/15.5575/2023,2000,g  2.5,4.0
# From MPEC 2025-CE3
C/2019 O3 (Palomar),h,03/08.8785/2021,89.7996,300.4710,60.1130,1.003252,8.821039,2000,3.5,4.0
# From MPEC 2025-CE3
C/2019 T4 (ATLAS),e,53.6256,199.9146,351.1081,874.0144,0.0000381,0.99515092,0.0000,06/08.6358/2022,2000,g  5.0,4.0
# From MPEC 2025-CE3
C/2019 U5 (PANSTARRS),h,03/29.5329/2023,113.5124,2.6201,181.4525,1.000376,3.623891,2000,4.5,4.0
# From MPEC 2025-CE3
C/2019 Y4-B (ATLAS),e,45.0502,120.8396,177.3803,1491,0.0000171,0.99982772,0.0000,05/29.9680/2020,2000,g 12.1,6.0
# From MPEC 2025-CE3
C/2020 F2 (ATLAS),h,07/12.8671/2022,163.5896,250.3042,48.2499,1.003227,8.813621,2000,4.5,4.0
# From MPEC 2025-CE3
C/2020 K1 (PANSTARRS),e,89.6710,94.3669,213.9734,3177,0.0000055,0.99903266,0.0000,05/08.8923/2023,2000,g  5.5,4.0
# From MPEC 2025-CE3
C/2021 A9 (PANSTARRS),h,12/03.5614/2023,158.0167,314.8466,211.5958,1.000570,7.762375,2000,6.0,4.0
# From MPEC 2025-CE3
C/2021 G2 (ATLAS),h,09/09.1421/2024,48.4705,221.0954,343.2685,1.000526,4.982354,2000,5.5,4.0
# From MPEC 2025-CE3
C/2021 S3 (PANSTARRS),h,02/14.6844/2024,58.5348,215.6150,6.8405,1.000074,1.319948,2000,5.5,4.0
# From MPEC 2025-CE3
C/2021 S4 (Tsuchinshan),e,17.4786,5.4623,73.0118,158.5676,0.0004936,0.95780467,0.1986,02/09.0/2025,2000,g  6.5,4.0
# From MPEC 2025-CE3
C/2021 T4 (Lemmon),e,160.7784,257.8923,329.7895,7621,0.0000015,0.99980554,0.0000,07/31.5431/2023,2000,g  7.5,4.0
# From MPEC 2025-CE3
C/2022 E2 (ATLAS),h,09/14.1404/2024,137.1403,125.3933,41.7415,1.000650,3.666324,2000,5.0,4.0
# From MPEC 2025-CE3
C/2022 L2 (ATLAS),h,03/12.2146/2024,129.3134,39.2403,199.9106,1.001023,2.692868,2000,6.5,4.0
# From MPEC 2025-CE3
C/2022 N2 (PANSTARRS),h,07/31.7573/2025,5.5030,319.7414,75.3887,1.003355,3.825446,2000,6.0,4.0
# From MPEC 2025-CE3
C/2022 QE78 (ATLAS),h,09/10.9930/2025,36.5836,119.9035,0.5082,1.004184,5.476727,2000,5.0,4.0
# From MPEC 2025-CE3
C/2022 R3 (Leonard),h,03/05.8626/2023,43.0757,8.2547,72.9230,1.001531,5.131202,2000,9.0,4.0
# From MPEC 2025-CE3
C/2022 R6 (PANSTARRS),h,08/25.9484/2025,57.0187,150.7862,319.8938,1.004978,6.565774,2000,5.0,4.0
# From MPEC 2025-CE3
C/2022 U3 (Bok),h,07/28.6513/2024,33.6611,272.7874,189.1263,1.000716,4.826549,2000,7.5,4.0
# From MPEC 2025-CE3
C/2023 A3 (Tsuchinshan-ATLAS),h,09/27.7416/2024,139.1110,21.5629,308.4969,1.000105,0.391474,2000,6.5,3.2
# From MPEC 2025-CE3
C/2023 F3 (ATLAS),h,02/02.6267/2025,145.9637,109.4640,265.5310,1.003747,5.190795,2000,6.0,4.0
# From MPEC 2025-CE3
C/2023 H5 (Lemmon),h,06/30.2195/2025,97.8561,159.4793,60.0900,1.000405,4.312687,2000,7.0,4.0
# From MPEC 2025-CE3
C/2023 Q1 (PANSTARRS),h,12/01.1433/2024,36.6431,7.1271,84.4181,1.005160,2.575710,2000,10.0,4.0
# From MPEC 2025-CE3
C/2023 R1 (PANSTARRS),h,04/13.5351/2026,149.3166,62.5577,144.2790,1.002044,3.569570,2000,6.0,4.0
# From MPEC 2025-CE3
P/2023 S1,e,9.1574,317.2898,180.2956,3.844636,0.1307438,0.31861622,358.0209,02/09.0/2025,2000,g 11.5,4.0
# From MPEC 2025-CE3
C/2023 T3 (Fuls),e,27.2220,246.0007,302.8459,815.9527,0.0000423,0.99565132,0.0000,01/25.3373/2025,2000,g  8.5,4.0
# From MPEC 2025-CE3
C/2023 U1 (Fuls),e,108.1456,305.8058,255.6346,2358,0.0000086,0.99789062,0.0000,10/12.8330/2024,2000,g  8.0,4.0
# From MPEC 2025-CE3
P/2023 V2 (PANSTARRS),e,9.8882,95.4737,330.5306,7.224224,0.0507595,0.57031769,18.8430,02/09.0/2025,2000,g 13.5,4.0
# From MPEC 2025-CE3
C/2023 X2 (Lemmon),h,12/27.8366/2025,76.9887,66.3076,64.7241,1.000560,5.089663,2000,8.5,3.2
# From MPEC 2025-CE3
C/2024 A1 (ATLAS),h,06/13.7270/2025,94.4485,112.1399,353.3133,1.001712,3.875302,2000,7.0,4.0
# From MPEC 2025-CE3
C/2024 A2 (ATLAS),e,119.1167,78.1669,295.5350,32.49529,0.0053208,0.94213538,1.5223,02/09.0/2025,2000,g 12.5,4.0
# From MPEC 2025-CE3
C/2024 B1 (Lemmon),h,10/07.7070/2024,70.9039,79.1878,66.2117,1.000927,1.633734,2000,13.0,4.0
# From MPEC 2025-CE3
C/2024 C3 (PANSTARRS),e,22.4580,359.7081,159.6623,11.66104,0.0247513,0.42434816,11.3529,02/09.0/2025,2000,g  9.0,4.0
# From MPEC 2025-CE3
C/2024 E1 (Wierzchos),h,01/20.7646/2026,75.2383,108.0827,243.6424,1.000043,0.565785,2000,7.0,4.0
# From MPEC 2025-CE3
C/2024 G2 (ATLAS),e,122.1292,171.3929,328.7330,741.1617,0.0000488,0.99278406,0.0000,06/13.5089/2025,2000,g  7.0,4.0
# From MPEC 2025-CE3
C/2024 G4 (PANSTARRS),e,33.0262,152.9874,131.4256,3009,0.0000060,0.99837129,0.0000,03/21.6976/2026,2000,g  8.0,4.0
# From MPEC 2025-CE3
C/2024 J2 (Wierzchos),e,79.2970,189.0595,143.1586,147.1773,0.0005520,0.98769588,0.0000,03/19.7815/2025,2000,g 11.5,4.0
# From MPEC 2025-CE3
C/2024 J4 (Lemmon),e,117.5329,19.3011,127.8565,6700,0.0000018,0.99914992,0.0000,04/26.0085/2025,2000,g  8.0,4.0
# From MPEC 2025-CE3
P/2024 L4 (Rankin),e,10.0465,139.7785,53.6995,2.228171,0.2963339,0.69839529,89.1095,02/09.0/2025,2000,g 21.5,4.0
# From MPEC 2025-CE3
C/2024 L5 (ATLAS),h,03/10.3972/2025,166.5733,139.1756,290.5136,1.037362,3.432409,2000,9.0,4.0
# From MPEC 2025-CE3
C/2024 M1 (ATLAS),e,73.7099,76.2150,345.5946,29.91030,0.0060252,0.94305183,0.4879,02/09.0/2025,2000,g 12.0,4.0
# From MPEC 2025-CE3
C/2024 N3 (Sarneczky),h,04/11.3888/2025,88.7288,82.6078,86.8791,1.001122,5.014576,2000,8.0,4.0
# From MPEC 2025-CE3
C/2024 N4 (Sarneczky),h,01/10.0110/2025,49.7716,339.6616,116.6823,1.004529,5.397609,2000,7.5,4.0
# From MPEC 2025-CE3
C/2024 PN7 (PANSTARRS),e,101.2103,358.5830,74.2743,67.37120,0.0017823,0.97737123,0.0000,12/06.4401/2024,2000,g 15.2,4.0
# From MPEC 2025-CE3
C/2024 Q4 (PANSTARRS),e,3.3120,324.3019,133.0071,926.9898,0.0000349,0.99415442,0.0000,11/12.1432/2024,2000,g 10.0,4.0
# From MPEC 2025-CE3
P/2024 R2 (PANSTARRS),e,15.1168,193.0462,203.9742,3.149714,0.1763183,0.26860112,22.9346,02/09.0/2025,2000,g 15.5,4.0
# From MPEC 2025-CE3
P/2024 T1 (Rankin),e,17.6198,279.7098,164.8745,6.603708,0.0580794,0.65367350,7.6415,02/09.0/2025,2000,g 14.5,4.0
# From MPEC 2025-CE3
P/2024 T2 (Rankin),e,12.9286,113.0607,343.8298,6.175050,0.0642308,0.68060318,4.0246,02/09.0/2025,2000,g 16.0,4.0
# From MPEC 2025-CE3
C/2024 T3 (PANSTARRS),e,53.4844,74.8306,336.8908,83.60112,0.0012894,0.95554849,359.9558,02/09.0/2025,2000,g 11.5,4.0
# From MPEC 2025-CE3
C/2024 T5 (ATLAS),h,05/06.2998/2027,52.3871,100.6822,352.4190,1.002033,3.843025,2000,5.5,4.0
# From MPEC 2025-CE3
C/2024 U1 (PANSTARRS),e,128.7537,270.2623,188.0771,529.1830,0.0000810,0.99086154,0.0000,06/30.4813/2024,2000,g 10.0,4.0
# From MPEC 2025-CE3
C/2024 V1 (Borisov),e,54.6230,328.1953,168.6620,234.6681,0.0002742,0.99012016,0.0000,04/04.0995/2025,2000,g 14.8,4.0
# From MPEC 2025-CE3
C/2024 W1 (PANSTARRS),e,83.2004,310.7278,256.7339,44.81309,0.0032855,0.94285794,359.8749,02/09.0/2025,2000,g 15.0,4.0
# From MPEC 2025-CE3
A/2024 W2,h,02/27.5347/2025,116.6401,241.9362,168.0236,1.002974,3.720727,2000,15.0,2.0
# From MPEC 2025-CE3
C/2024 X1 (Fazekas),e,6.4560,352.2655,124.1519,9.535869,0.0334706,0.59983300,354.1187,02/09.0/2025,2000,g 11.3,4.0
# From MPEC 2025-CE3
C/2024 X2 (ATLAS),e,109.2224,122.5177,315.7659,50.72307,0.0027283,0.92751529,359.5940,02/09.0/2025,2000,g  9.6,4.0
# From MPEC 2025-CE3
P/2024 X3 (PANSTARRS),e,2.9725,113.3663,352.9239,7.001068,0.0532056,0.62663118,8.3143,02/09.0/2025,2000,g 14.6,4.0
# From MPEC 2025-CE3
C/2024 Y1 (Masek),e,64.7501,112.5454,238.1397,61.71800,0.0020328,0.98667570,0.0000,11/26.8587/2024,2000,g 17.6,4.0
# From MPEC 2025-CE3
A/2025 A1,h,03/12.0992/2027,33.4338,101.3293,68.0162,1.003920,5.345488,2000,9.0,4.0
# From MPEC 2025-CE3
P/2025 A2 (PANSTARRS),e,20.7330,189.3217,278.0522,5.085577,0.0859397,0.32233540,10.8522,02/09.0/2025,2000,g 13.2,4.0
# From MPEC 2025-CE3
C/2025 A3 (Tsuchinshan),e,9.9379,322.3979,219.0952,10.12298,0.0306014,0.42239943,348.8845,02/09.0/2025,2000,g  9.0,4.0
# From MPEC 2025-CE3
C/2025 A4 (PANSTARRS),e,32.0265,69.9015,102.8336,11.03029,0.0269044,0.65332919,0.7179,02/09.0/2025,2000,g 12.4,4.0
# From MPEC 2025-CE3
C/2025 B1 (PANSTARRS),h,06/26.7418/2025,39.6676,102.8395,23.5284,1.002531,3.530829,2000,12.0,4.0
# From MPEC 2025-CF3
C/2025 B2 (Borisov),e,91.7858,84.9060,78.4610,4786,0.0000030,0.99827410,0.0000,09/06.4249/2026,2000,g  6.2,4.0
# From MPEC 2025-CE3
10P/Tempel,e,12.0275,117.8017,195.5036,3.063490,0.1838143,0.53738739,260.8911,02/09.0/2025,2000,g  5.0,10.0
# From MPEC 2025-CE3
29P/Schwassmann-Wachmann,e,9.3562,312.4045,52.1797,6.056081,0.0661328,0.04348748,139.4073,02/09.0/2025,2000,g  4.0,4.0
# From MPEC 2025-CE3
30P/Reinmuth,e,8.0532,117.2346,9.4988,3.734676,0.1365604,0.51435709,24.0066,02/09.0/2025,2000,g  9.5,6.0
# From MPEC 2025-CE3
32P/ComasSola,e,9.9206,54.5308,54.6914,4.553163,0.1014459,0.55528853,29.8598,02/09.0/2025,2000,g  6.5,8.0
# From MPEC 2025-CE3
33P/Daniel,e,22.2943,66.2819,20.2707,4.093615,0.1189991,0.45218187,10.7167,02/09.0/2025,2000,g 10.0,12.0
# From MPEC 2025-CE3
40P/Vaisala,e,11.6335,128.9199,51.9952,4.953740,0.0893932,0.63180333,335.3361,02/09.0/2025,2000,g  5.5,12.0
# From MPEC 2025-CE3
43P/Wolf-Harrington,e,9.3338,243.9959,223.8577,4.331025,0.1093498,0.43602437,340.6580,02/09.0/2025,2000,g  8.0,6.0
# From MPEC 2025-CE3
49P/Arend-Rigaux,e,19.0587,118.7928,332.9356,3.570011,0.1461167,0.59906583,351.1422,02/09.0/2025,2000,g 11.3,4.4
# From MPEC 2025-CE3
50P/Arend,e,19.0993,355.1469,49.3258,4.087817,0.1192524,0.52981208,32.4744,02/09.0/2025,2000,g  9.5,6.0
# From MPEC 2025-CE3
